TIANLIAN 1-05           
1 49011U 21063A   26155.92492575  .00000120  00000+0  00000+0 0  9990
2 49011   1.5618  80.8063 0001137 316.3426 206.0165  1.00273211 17959
STAR ONE D2             
1 49055U 21069A   26155.17128294  .00000000  00000+0  00000+0 0  9992
2 49055   0.0112 352.6812 0001639 108.8545 142.6533  1.00268643 17817
EUTELSAT QUANTUM        
1 49056U 21069B   26156.21621706  .00000138  00000+0  00000+0 0  9997
2 49056   0.0118 327.8323 0002517 102.2602 309.0991  1.00271315 17809
ZHONGXING-2E            
1 49062U 21071A   26156.18566959 -.00000279  00000+0  00000+0 0  9998
2 49062   0.0428  95.5527 0002247  43.9646 279.0037  1.00270013 17917
TJS-7                   
1 49115U 21077A   26156.28894214 -.00000112  00000+0  00000+0 0  9998
2 49115   0.4781  86.2365 0002548 333.0408 199.0157  1.00271580  9434
CHINASAT 9B             
1 49125U 21080A   26155.51383828 -.00000300  00000+0  00000+0 0  9991
2 49125   0.0134  29.6015 0002073  61.6976  88.0197  1.00268767 17526
SHIJIAN-21 (SJ-21)      
1 49330U 21094A   26155.86779455 -.00000336  00000+0  00000+0 0  9996
2 49330   5.0835  61.2536 0049331 167.9485 104.4490  1.00277867  5235
SES-17                  
1 49332U 21095A   26155.83700752 -.00000260  00000+0  00000+0 0  9996
2 49332   0.0264  36.4551 0001189  39.2642  51.7813  1.00269514 17735
SYRACUSE 4A             
1 49333U 21095B   26156.21578373  .00000147  00000+0  00000+0 0  9995
2 49333   0.0167 333.7086 0001351  98.7464 304.3786  1.00269576 17821
QZS-1R (MICHIBIKI-1R)   
1 49336U 21096A   26155.72839059 -.00000245  00000+0  00000+0 0  9995
2 49336  37.4366  79.7685 0754126 271.5405 298.7927  1.00260525 16885
ZHONGXING-1D            
1 49505U 21114A   26155.30566586 -.00000324  00000+0  00000+0 0  9998
2 49505   0.0559  87.3706 0001029  80.7015 324.8938  1.00269552 16697
STPSAT-6                
1 49817U 21118A   26156.25585859 -.00000034  00000+0  00000+0 0  9995
2 49817   0.2894  85.5325 0001455 262.9831 245.5813  1.00273706 16458
EXPRESS AMU-7           
1 50001U 21123A   26153.71472487 -.00000230  00000+0  00000+0 0  9996
2 50001   0.0165 304.5721 0000622  41.0591 307.8527  1.00271575 16391
EXPRESS AMU-3           
1 50002U 21123B   26154.01532287 -.00000309  00000+0  00000+0 0  9993
2 50002   0.0160 318.5718 0000861 342.5789  58.8457  1.00270974  6892
TIANLIAN 2-02           
1 50005U 21124A   26156.24059828 -.00000002  00000+0  00000+0 0  9999
2 50005   0.7706  86.3180 0001234 225.5197 199.4272  1.00272678 16508
TURKSAT 5B              
1 50212U 21126A   26156.15114062  .00000158  00000+0  00000+0 0  9994
2 50212   0.0675 342.3308 0003728  16.4611 351.2088  1.00272308 16177
INMARSAT 6-F1           
1 50319U 21128A   26155.93817899 -.00000160  00000+0  00000+0 0  9991
2 50319   0.0157 308.4291 0000318 190.2339 176.2163  1.00271628 16133
SHIYAN-12 01 (SY-12 01) 
1 50321U 21129A   26154.74681170  .00000007  00000+0  00000+0 0  9993
2 50321   3.6398  80.0898 0003609 290.7507 221.5939  1.00038141 16368
SHIYAN-12 02 (SY-12 02) 
1 50322U 21129B   26154.74989406 -.00000158  00000+0  00000+0 0  9995
2 50322   3.6395  80.0970 0002710  48.7511 111.6108  1.00492737 16367
TJS-9                   
1 50574U 21135A   26156.30519267 -.00000286  00000+0  00000+0 0  9991
2 50574   0.0651 257.4112 0004919 149.4706  93.9320  1.00273513 16310
GOES 18                 
1 51850U 22021A   26156.29940366  .00000109  00000+0  00000+0 0  9993
2 51850   0.0404 134.1691 0000601 349.6511 100.6985  1.00271934  6473
ZHONGXING-6D            
1 52255U 22038A   26155.94869785 -.00000341  00000+0  00000+0 0  9996
2 52255   0.0305  94.9777 0000331 253.4117  11.6149  1.00271058 15307
NILESAT 301             
1 52817U 22061A   26156.31037000 -.00000045  00000+0  00000+0 0  9996
2 52817   0.0532  21.0176 0005669  22.1307 315.3260  1.00272131 14612
CMS-02 (GSAT-24)        
1 52903U 22067A   26156.08054950 -.00000153  00000+0  00000+0 0  9995
2 52903   0.0116  19.7932 0001907 355.7271 350.0070  1.00271904 14483
MEASAT 3D               
1 52904U 22067B   26156.29611367 -.00000229  00000+0  00000+0 0  9994
2 52904   0.0272 352.1742 0001356  44.4361  55.2316  1.00271253 14530
SES-22                  
1 52933U 22071A   26156.30176013  .00000117  00000+0  00000+0 0  9992
2 52933   0.0154 350.9791 0001346  75.1459 157.2423  1.00273019  7401
WFOV (USA 332)          
1 52940U 22073A   26155.70808747 -.00000351  00000+0  00000+0 0  9992
2 52940   3.6786  78.6864 0001848 247.4262 301.1910  1.00269264 14245
TIANLIAN 2-03           
1 53100U 22078A   26156.28016692  .00000084  00000+0  00000+0 0  9992
2 53100   0.6420  76.7850 0001556 314.3768 334.0009  1.00272113 14422
SBIRS GEO-6 (USA 336)   
1 53355U 22092A   26156.23427159 -.00000281  00000+0  00000+0 0  9999
2 53355   3.2786 317.2860 0002173 113.0986  46.6372  1.00271560 14114
EUTELSAT KONNECT VHTS   
1 53765U 22110A   26156.27860691  .00000029  00000+0  00000+0 0  9990
2 53765   0.0660 104.1741 0002879 316.7056 295.8426  1.00271193  6716
ZHONGXING-1E            
1 53813U 22112A   26156.21364125 -.00000137  00000+0  00000+0 0  9992
2 53813   0.0396 103.3934 0000403 265.8360  42.7482  1.00271369 13729
