OBJECT_NAME,OBJECT_ID,EPOCH,MEAN_MOTION,ECCENTRICITY,INCLINATION,RA_OF_ASC_NODE,ARG_OF_PERICENTER,MEAN_ANOMALY,EPHEMERIS_TYPE,CLASSIFICATION_TYPE,NORAD_CAT_ID,ELEMENT_SET_NO,REV_AT_EPOCH,BSTAR,MEAN_MOTION_DOT,MEAN_MOTION_DDOT
TIANLIAN 1-05,2021-063A,2026-06-04T22:11:53.584800,1.00273211,.0001137,1.5618,80.8063,316.3426,206.0165,0,U,49011,999,1795,0,.12E-5,0
STAR ONE D2,2021-069A,2026-06-04T04:06:38.846016,1.00268643,.00016394,0.0112,352.6812,108.8545,142.6533,0,U,49055,999,1781,0,0,0
EUTELSAT QUANTUM,2021-069B,2026-06-05T05:11:21.153984,1.00271315,.00025172,0.0118,327.8323,102.2602,309.0991,0,U,49056,999,1780,0,.138E-5,0
ZHONGXING-2E,2021-071A,2026-06-05T04:27:21.852576,1.00270013,.00022476,0.0428,95.5527,43.9646,279.0037,0,U,49062,999,1791,0,-.279E-5,0
TJS-7,2021-077A,2026-06-05T06:56:04.600896,1.00271580,.0002548,0.4781,86.2365,333.0408,199.0157,0,U,49115,999,943,0,-.112E-5,0
CHINASAT 9B,2021-080A,2026-06-04T12:19:55.627392,1.00268767,.0002073,0.0134,29.6015,61.6976,88.0197,0,U,49125,999,1752,0,-.3E-5,0
SHIJIAN-21 (SJ-21),2021-094A,2026-06-04T20:49:37.449120,1.00277867,.0049331,5.0835,61.2536,167.9485,104.4490,0,U,49330,999,523,0,-.336E-5,0
SES-17,2021-095A,2026-06-04T20:05:17.449728,1.00269514,.0001189,0.0264,36.4551,39.2642,51.7813,0,U,49332,999,1773,0,-.26E-5,0
SYRACUSE 4A,2021-095B,2026-06-05T05:10:43.714272,1.00269576,.00013516,0.0167,333.7086,98.7464,304.3786,0,U,49333,999,1782,0,.147E-5,0
QZS-1R (MICHIBIKI-1R),2021-096A,2026-06-04T17:28:52.946976,1.00260525,.07541261,37.4366,79.7685,271.5405,298.7927,0,U,49336,999,1688,0,-.245E-5,0
ZHONGXING-1D,2021-114A,2026-06-04T07:20:09.530304,1.00269552,.00010297,0.0559,87.3706,80.7015,324.8938,0,U,49505,999,1669,0,-.324E-5,0
STPSAT-6,2021-118A,2026-06-05T06:08:26.182176,1.00273706,.00014559,0.2894,85.5325,262.9831,245.5813,0,U,49817,999,1645,0,-.34E-6,0
EXPRESS AMU-7,2021-123A,2026-06-02T17:09:12.228768,1.00271575,.00006225,0.0165,304.5721,41.0591,307.8527,0,U,50001,999,1639,0,-.23E-5,0
EXPRESS AMU-3,2021-123B,2026-06-03T00:22:03.895968,1.00270974,.00008615,0.0160,318.5718,342.5789,58.8457,0,U,50002,999,689,0,-.309E-5,0
TIANLIAN 2-02,2021-124A,2026-06-05T05:46:27.691392,1.00272678,.0001234,0.7706,86.3180,225.5197,199.4272,0,U,50005,999,1650,0,-.2E-7,0
TURKSAT 5B,2021-126A,2026-06-05T03:37:38.549568,1.00272308,.00037284,0.0675,342.3308,16.4611,351.2088,0,U,50212,999,1617,0,.158E-5,0
INMARSAT 6-F1,2021-128A,2026-06-04T22:30:58.664736,1.00271628,.0000318,0.0157,308.4291,190.2339,176.2163,0,U,50319,999,1613,0,-.16E-5,0
SHIYAN-12 01 (SY-12 01),2021-129A,2026-06-03T17:55:24.530880,1.00038141,.0003609,3.6398,80.0898,290.7507,221.5939,0,U,50321,999,1636,0,.7E-7,0
SHIYAN-12 02 (SY-12 02),2021-129B,2026-06-03T17:59:50.846784,1.00492737,.000271,3.6395,80.0970,48.7511,111.6108,0,U,50322,999,1636,0,-.158E-5,0
TJS-9,2021-135A,2026-06-05T07:19:28.646688,1.00273513,.00049197,0.0651,257.4112,149.4706,93.9320,0,U,50574,999,1631,0,-.286E-5,0
GOES 18,2022-021A,2026-06-05T07:11:08.476224,1.00271934,.00006012,0.0404,134.1691,349.6511,100.6985,0,U,51850,999,647,0,.109E-5,0
ZHONGXING-6D,2022-038A,2026-06-04T22:46:07.494240,1.00271058,.00003314,0.0305,94.9777,253.4117,11.6149,0,U,52255,999,1530,0,-.341E-5,0
NILESAT 301,2022-061A,2026-06-05T07:26:55.968000,1.00272131,.00056698,0.0532,21.0176,22.1307,315.3260,0,U,52817,999,1461,0,-.45E-6,0
CMS-02 (GSAT-24),2022-067A,2026-06-05T01:55:59.476800,1.00271904,.00019072,0.0116,19.7932,355.7271,350.0070,0,U,52903,999,1448,0,-.153E-5,0
MEASAT 3D,2022-067B,2026-06-05T07:06:24.221088,1.00271253,.00013569,0.0272,352.1742,44.4361,55.2316,0,U,52904,999,1453,0,-.229E-5,0
SES-22,2022-071A,2026-06-05T07:14:32.075232,1.00273019,.00013466,0.0154,350.9791,75.1459,157.2423,0,U,52933,999,740,0,.117E-5,0
WFOV (USA 332),2022-073A,2026-06-04T16:59:38.757408,1.00269264,.00018484,3.6786,78.6864,247.4262,301.1910,0,U,52940,999,1424,0,-.351E-5,0
TIANLIAN 2-03,2022-078A,2026-06-05T06:43:26.421888,1.00272113,.00015568,0.6420,76.7850,314.3768,334.0009,0,U,53100,999,1442,0,.84E-6,0
SBIRS GEO-6 (USA 336),2022-092A,2026-06-05T05:37:21.065376,1.00271560,.00021735,3.2786,317.2860,113.0986,46.6372,0,U,53355,999,1411,0,-.281E-5,0
EUTELSAT KONNECT VHTS,2022-110A,2026-06-05T06:41:11.637024,1.00271193,.00028794,0.0660,104.1741,316.7056,295.8426,0,U,53765,999,671,0,.29E-6,0
ZHONGXING-1E,2022-112A,2026-06-05T05:07:38.604000,1.00271369,.0000403,0.0396,103.3934,265.8360,42.7482,0,U,53813,999,1372,0,-.137E-5,0
